******** Week 1023 almanac for PRN-21 ********
ID:                         21
Health:                     000
Eccentricity:               1.5382289886E-002
Time of Applicability(s):   61440.0000
Orbital Inclination(rad):   0.9708924294
Rate of Right Ascen(r/s):  -7.9889046489E-009
SQRT(A)  (m^1/2):           5153.636230
Right Ascen at TOA(rad):    1.7358222008E+000
Argument of Perigee(rad):  -2.654960155
Mean Anom(rad):             2.6455752850E+000
Af0(s):                     2.7656555176E-005
Af1(s/s):                   0.0000000000E+000
week:                       1023

******** Week 1023 almanac for PRN-22 ********
ID:                         22
Health:                     000
Eccentricity:               1.2169837952E-002
Time of Applicability(s):   61440.0000
Orbital Inclination(rad):   0.9348618984
Rate of Right Ascen(r/s):  -8.2746307584E-009
SQRT(A)  (m^1/2):           5153.644043
Right Ascen at TOA(rad):   -1.4572290182E+000
Argument of Perigee(rad):   0.469911963
Mean Anom(rad):             2.1520373821E+000
Af0(s):                     2.4795532227E-005
Af1(s/s):                   4.7293724492E-011
week:                       1023

******** Week 1023 almanac for PRN-23 ********
ID:                         23
Health:                     000
Eccentricity:               1.3931274414E-002
Time of Applicability(s):   61440.0000
Orbital Inclination(rad):   0.9739664197
Rate of Right Ascen(r/s):  -8.0003337288E-009
SQRT(A)  (m^1/2):           5153.626953
Right Ascen at TOA(rad):    1.7758393288E+000
Argument of Perigee(rad):  -1.956542373
Mean Anom(rad):             2.5475885868E+000
Af0(s):                     3.8146972656E-006
Af1(s/s):                   0.0000000000E+000
week:                       1023

******** Week 1023 almanac for PRN-24 ********
ID:                         24
Health:                     000
Eccentricity:               8.5859298706E-003
Time of Applicability(s):   61440.0000
Orbital Inclination(rad):   0.9874905944
Rate of Right Ascen(r/s):  -7.5546005007E-009
SQRT(A)  (m^1/2):           5153.591309
Right Ascen at TOA(rad):    7.1402162313E-001
Argument of Perigee(rad):  -1.764688373
Mean Anom(rad):            -1.1361843348E+000
Af0(s):                     5.8841705322E-004
Af1(s/s):                  -3.6379788071E-012
week:                       1023

******** Week 1023 almanac for PRN-25 ********
ID:                         25
Health:                     000
Eccentricity:               7.6675415039E-003
Time of Applicability(s):   61440.0000
Orbital Inclination(rad):   0.9365217090
Rate of Right Ascen(r/s):  -7.9889046489E-009
SQRT(A)  (m^1/2):           5153.756348
Right Ascen at TOA(rad):   -2.5091509819E+000
Argument of Perigee(rad):  -2.271748781
Mean Anom(rad):            -1.0002633929E-001
Af0(s):                     1.9073486328E-006
Af1(s/s):                   0.0000000000E+000
week:                       1023

******** Week 1023 almanac for PRN-26 ********
ID:                         26
Health:                     000
Eccentricity:               1.1459827423E-002
Time of Applicability(s):   61440.0000
Orbital Inclination(rad):   0.9616406560
Rate of Right Ascen(r/s):  -8.0460500484E-009
SQRT(A)  (m^1/2):           5153.583496
Right Ascen at TOA(rad):    2.7840397358E+000
Argument of Perigee(rad):  -0.021849863
Mean Anom(rad):             8.5799002647E-001
Af0(s):                     6.6852569580E-004
Af1(s/s):                   3.6379788071E-012
week:                       1023

******** Week 1023 almanac for PRN-27 ********
ID:                         27
Health:                     000
Eccentricity:               1.3493061066E-002
Time of Applicability(s):   61440.0000
Orbital Inclination(rad):   0.9408899546
Rate of Right Ascen(r/s):  -7.9203301695E-009
SQRT(A)  (m^1/2):           5153.555664
Right Ascen at TOA(rad):   -2.4891221523E+000
Argument of Perigee(rad):  -2.869587421
Mean Anom(rad):            -2.1153635979E+000
Af0(s):                     2.9563903809E-005
Af1(s/s):                   0.0000000000E+000
week:                       1023

******** Week 1023 almanac for PRN-29 ********
ID:                         29
Health:                     000
Eccentricity:               6.9160461426E-003
Time of Applicability(s):   61440.0000
Orbital Inclination(rad):   0.9582910538
Rate of Right Ascen(r/s):  -8.1146236397E-009
SQRT(A)  (m^1/2):           5153.524902
Right Ascen at TOA(rad):    2.7566006184E+000
Argument of Perigee(rad):  -1.959262013
Mean Anom(rad):             1.0145231485E+000
Af0(s):                     5.2261352539E-004
Af1(s/s):                   0.0000000000E+000
week:                       1023

******** Week 1023 almanac for PRN-30 ********
ID:                         30
Health:                     000
Eccentricity:               5.1407814026E-003
Time of Applicability(s):   61440.0000
Orbital Inclination(rad):   0.9453660846
Rate of Right Ascen(r/s):  -8.2174853588E-009
SQRT(A)  (m^1/2):           5153.517578
Right Ascen at TOA(rad):   -1.4234267473E+000
Argument of Perigee(rad):   1.519770503
Mean Anom(rad):             2.5967729092E+000
Af0(s):                    -2.8610229492E-005
Af1(s/s):                   0.0000000000E+000
week:                       1023

******** Week 1023 almanac for PRN-31 ********
ID:                         31
Health:                     000
Eccentricity:               8.8262557983E-003
Time of Applicability(s):   61440.0000
Orbital Inclination(rad):   0.9536471367
Rate of Right Ascen(r/s):  -8.1603399593E-009
SQRT(A)  (m^1/2):           5153.532227
Right Ascen at TOA(rad):   -3.8013926148E-001
Argument of Perigee(rad):   0.794136941
Mean Anom(rad):            -1.0008288920E-001
Af0(s):                     2.3841857910E-005
Af1(s/s):                   0.0000000000E+000
week:                       1023

